HULIANWANG DIGUI 13J    
1 66420U 25258J   25319.41024359  .00000134  00000+0  12129-3 0  9993
2 66420  50.0035  17.0701 0011005 270.1786  89.7867 14.26504609   751
CZ-12 R/B               
1 66421U 25258K   25320.59971892 -.00000020  00000+0  44407-4 0  9998
2 66421  49.9960  11.3761 0064676 155.4389 204.9636 14.42309197   944
