CCSDS_OMM_VERS = 2.0
CREATION_DATE  = 
ORIGINATOR     = 

OBJECT_NAME    = HULIANWANG DIGUI 13J
OBJECT_ID      = 2025-258J
CENTER_NAME    = EARTH
REF_FRAME      = TEME
TIME_SYSTEM    = UTC
MEAN_ELEMENT_THEORY = SGP/SGP4

EPOCH          = 2025-11-15T09:50:45.046176
MEAN_MOTION    = 14.26504609
ECCENTRICITY   = .00110052
INCLINATION    = 50.0035
RA_OF_ASC_NODE = 17.0701
ARG_OF_PERICENTER = 270.1786
MEAN_ANOMALY   = 89.7867

EPHEMERIS_TYPE = 0
CLASSIFICATION_TYPE = U
NORAD_CAT_ID   = 66420
ELEMENT_SET_NO = 999
REV_AT_EPOCH   = 75
BSTAR          = .12128972E-3
MEAN_MOTION_DOT = .134E-5
MEAN_MOTION_DDOT = 0

CCSDS_OMM_VERS = 2.0
CREATION_DATE  = 
ORIGINATOR     = 

OBJECT_NAME    = CZ-12 R/B
OBJECT_ID      = 2025-258K
CENTER_NAME    = EARTH
REF_FRAME      = TEME
TIME_SYSTEM    = UTC
MEAN_ELEMENT_THEORY = SGP/SGP4

EPOCH          = 2025-11-16T14:23:35.714688
MEAN_MOTION    = 14.42309197
ECCENTRICITY   = .00646767
INCLINATION    = 49.9960
RA_OF_ASC_NODE = 11.3761
ARG_OF_PERICENTER = 155.4389
MEAN_ANOMALY   = 204.9636

EPHEMERIS_TYPE = 0
CLASSIFICATION_TYPE = U
NORAD_CAT_ID   = 66421
ELEMENT_SET_NO = 999
REV_AT_EPOCH   = 94
BSTAR          = .44406548E-4
MEAN_MOTION_DOT = -.2E-6
MEAN_MOTION_DDOT = 0

